{"type": "FeatureCollection", "features": [ {"type": "Feature", "properties": {"norad_id": 34400, "name": "COSMOS 2251 DEB", "group": "cosmos-2251-debris", "lat": 60.56587197620686, "lon": -164.24954272631058, "alt_km": 421.76725493969934, "timestamp": "2025-12-02T07:10:09.510513+00:00", "meta": {"OBJECT_NAME": "COSMOS 2251 DEB", "OBJECT_ID": "1993-036QR", "EPOCH": "2025-12-01T13:36:31.493088", "MEAN_MOTION": 15.47576222, "ECCENTRICITY": 0.00081566, "INCLINATION": 73.969, "RA_OF_ASC_NODE": 47.9921, "ARG_OF_PERICENTER": 269.1063, "MEAN_ANOMALY": 90.9214, "EPHEMERIS_TYPE": 0, "CLASSIFICATION_TYPE": "U", "NORAD_CAT_ID": 34400, "ELEMENT_SET_NO": 999, "REV_AT_EPOCH": 89801, "BSTAR": 0.0034019957, "MEAN_MOTION_DOT": 0.00179563, "MEAN_MOTION_DDOT": 0}, "tle": {"line1": "1 34400U 93036QR  25335.56703117  .00179563  00000+0  34020-2 0  9991", "line2": "2 34400  73.9690  47.9921 0008156 269.1063  90.9214 15.47576222898018"}}, "geometry": {"type": "Point", "coordinates": [-164.24954272631058, 60.56587197620686]}}, {"type": "Feature", "properties": {"norad_id": 34409, "name": "COSMOS 2251 DEB", "group": "cosmos-2251-debris", "lat": -70.26126883464644, "lon": -160.54689182586307, "alt_km": 752.9032176025039, "timestamp": "2025-12-02T07:10:09.510524+00:00", "meta": {"OBJECT_NAME": "COSMOS 2251 DEB", "OBJECT_ID": "1993-036RA", "EPOCH": "2025-12-01T17:37:16.823136", "MEAN_MOTION": 14.57983249, "ECCENTRICITY": 0.0079409, "INCLINATION": 74.0627, "RA_OF_ASC_NODE": 327.7397, "ARG_OF_PERICENTER": 45.0822, "MEAN_ANOMALY": 131.9314, "EPHEMERIS_TYPE": 0, "CLASSIFICATION_TYPE": "U", "NORAD_CAT_ID": 34409, "ELEMENT_SET_NO": 999, "REV_AT_EPOCH": 89032, "BSTAR": 0.00024315, "MEAN_MOTION_DOT": 1.135e-05, "MEAN_MOTION_DDOT": 0}, "tle": {"line1": "1 34409U 93036RA  25335.73422249  .00001135  00000+0  24315-3 0  9999", "line2": "2 34409  74.0627 327.7397 0079409  45.0822 131.9314 14.57983249890322"}}, "geometry": {"type": "Point", "coordinates": [-160.54689182586307, -70.26126883464644]}}, {"type": "Feature", "properties": {"norad_id": 34410, "name": "COSMOS 2251 DEB", "group": "cosmos-2251-debris", "lat": -17.94606366824497, "lon": 109.38715827008416, "alt_km": 514.6583402098368, "timestamp": "2025-12-02T07:10:09.510534+00:00", "meta": {"OBJECT_NAME": "COSMOS 2251 DEB", "OBJECT_ID": "1993-036RB", "EPOCH": "2025-12-01T15:14:32.587296", "MEAN_MOTION": 15.17243906, "ECCENTRICITY": 0.00207551, "INCLINATION": 73.7388, "RA_OF_ASC_NODE": 285.3722, "ARG_OF_PERICENTER": 126.286, "MEAN_ANOMALY": 48.7908, "EPHEMERIS_TYPE": 0, "CLASSIFICATION_TYPE": "U", "NORAD_CAT_ID": 34410, "ELEMENT_SET_NO": 999, "REV_AT_EPOCH": 89605, "BSTAR": 0.0025246308, "MEAN_MOTION_DOT": 0.00050843, "MEAN_MOTION_DDOT": 0}, "tle": {"line1": "1 34410U 93036RB  25335.63509939  .00050843  00000+0  25246-2 0  9995", "line2": "2 34410  73.7388 285.3722 0020755 126.2860  48.7908 15.17243906896055"}}, "geometry": {"type": "Point", "coordinates": [109.38715827008416, -17.94606366824497]}}, {"type": "Feature", "properties": {"norad_id": 34412, "name": "COSMOS 2251 DEB", "group": "cosmos-2251-debris", "lat": 17.401725493731906, "lon": 159.06679246848088, "alt_km": 709.8942764433732, "timestamp": "2025-12-02T07:10:09.510544+00:00", "meta": {"OBJECT_NAME": "COSMOS 2251 DEB", "OBJECT_ID": "1993-036RD", "EPOCH": "2025-12-01T10:31:55.624800", "MEAN_MOTION": 14.46970072, "ECCENTRICITY": 0.018715, "INCLINATION": 73.9486, "RA_OF_ASC_NODE": 345.8597, "ARG_OF_PERICENTER": 83.6666, "MEAN_ANOMALY": 278.577, "EPHEMERIS_TYPE": 0, "CLASSIFICATION_TYPE": "U", "NORAD_CAT_ID": 34412, "ELEMENT_SET_NO": 999, "REV_AT_EPOCH": 87487, "BSTAR": 0.00087771227, "MEAN_MOTION_DOT": 3.945e-05, "MEAN_MOTION_DDOT": 0}, "tle": {"line1": "1 34412U 93036RD  25335.43883825  .00003945  00000+0  87771-3 0  9997", "line2": "2 34412  73.9486 345.8597 0187150  83.6666 278.5770 14.46970072874871"}}, "geometry": {"type": "Point", "coordinates": [159.06679246848088, 17.401725493731906]}}, {"type": "Feature", "properties": {"norad_id": 34413, "name": "COSMOS 2251 DEB", "group": "cosmos-2251-debris", "lat": -62.636770557250586, "lon": 137.43226756266913, "alt_km": 828.8714997193492, "timestamp": "2025-12-02T07:10:09.510554+00:00", "meta": {"OBJECT_NAME": "COSMOS 2251 DEB", "OBJECT_ID": "1993-036RE", "EPOCH": "2025-12-01T03:11:46.453056", "MEAN_MOTION": 14.2893214, "ECCENTRICITY": 0.00905647, "INCLINATION": 74.0308, "RA_OF_ASC_NODE": 285.9547, "ARG_OF_PERICENTER": 4.6465, "MEAN_ANOMALY": 10.3657, "EPHEMERIS_TYPE": 0, "CLASSIFICATION_TYPE": "U", "NORAD_CAT_ID": 34413, "ELEMENT_SET_NO": 999, "REV_AT_EPOCH": 86965, "BSTAR": 0.0019078461, "MEAN_MOTION_DOT": 5.015e-05, "MEAN_MOTION_DDOT": 0}, "tle": {"line1": "1 34413U 93036RE  25335.13317654  .00005015  00000+0  19078-2 0  9991", "line2": "2 34413  74.0308 285.9547 0090564   4.6465  10.3657 14.28932140869658"}}, "geometry": {"type": "Point", "coordinates": [137.43226756266913, -62.636770557250586]}}, {"type": "Feature", "properties": {"norad_id": 34420, "name": "COSMOS 2251 DEB", "group": "cosmos-2251-debris", "lat": -48.69141797980326, "lon": 105.13840493822151, "alt_km": 636.062446642065, "timestamp": "2025-12-02T07:10:09.510564+00:00", "meta": {"OBJECT_NAME": "COSMOS 2251 DEB", "OBJECT_ID": "1993-036RM", "EPOCH": "2025-12-01T20:32:17.143008", "MEAN_MOTION": 14.68242633, "ECCENTRICITY": 0.0107007, "INCLINATION": 74.0317, "RA_OF_ASC_NODE": 125.0109, "ARG_OF_PERICENTER": 248.6294, "MEAN_ANOMALY": 238.5851, "EPHEMERIS_TYPE": 0, "CLASSIFICATION_TYPE": "U", "NORAD_CAT_ID": 34420, "ELEMENT_SET_NO": 999, "REV_AT_EPOCH": 89610, "BSTAR": 0.00025294, "MEAN_MOTION_DOT": 1.553e-05, "MEAN_MOTION_DDOT": 0}, "tle": {"line1": "1 34420U 93036RM  25335.85575397  .00001553  00000+0  25294-3 0  9999", "line2": "2 34420  74.0317 125.0109 0107007 248.6294 238.5851 14.68242633896100"}}, "geometry": {"type": "Point", "coordinates": [105.13840493822151, -48.69141797980326]}}, {"type": "Feature", "properties": {"norad_id": 34425, "name": "COSMOS 2251 DEB", "group": "cosmos-2251-debris", "lat": -73.86574385263889, "lon": -23.345111608496072, "alt_km": 685.8231142766826, "timestamp": "2025-12-02T07:10:09.510575+00:00", "meta": {"OBJECT_NAME": "COSMOS 2251 DEB", "OBJECT_ID": "1993-036RS", "EPOCH": "2025-12-01T15:10:06.902112", "MEAN_MOTION": 14.62013985, "ECCENTRICITY": 0.00256392, "INCLINATION": 74.02, "RA_OF_ASC_NODE": 75.8033, "ARG_OF_PERICENTER": 204.6242, "MEAN_ANOMALY": 155.3702, "EPHEMERIS_TYPE": 0, "CLASSIFICATION_TYPE": "U", "NORAD_CAT_ID": 34425, "ELEMENT_SET_NO": 999, "REV_AT_EPOCH": 88578, "BSTAR": 0.00070416191, "MEAN_MOTION_DOT": 3.519e-05, "MEAN_MOTION_DDOT": 0}, "tle": {"line1": "1 34425U 93036RS  25335.63202433  .00003519  00000+0  70416-3 0  9998", "line2": "2 34425  74.0200  75.8033 0025639 204.6242 155.3702 14.62013985885782"}}, "geometry": {"type": "Point", "coordinates": [-23.345111608496072, -73.86574385263889]}}, {"type": "Feature", "properties": {"norad_id": 34429, "name": "COSMOS 2251 DEB", "group": "cosmos-2251-debris", "lat": -40.899108635944806, "lon": 176.20744641570337, "alt_km": 462.3406456759076, "timestamp": "2025-12-02T07:10:09.510585+00:00", "meta": {"OBJECT_NAME": "COSMOS 2251 DEB", "OBJECT_ID": "1993-036RW", "EPOCH": "2025-12-01T15:58:15.643776", "MEAN_MOTION": 15.36258945, "ECCENTRICITY": 0.00053943, "INCLINATION": 73.9711, "RA_OF_ASC_NODE": 191.9931, "ARG_OF_PERICENTER": 40.3675, "MEAN_ANOMALY": 15.899, "EPHEMERIS_TYPE": 0, "CLASSIFICATION_TYPE": "U", "NORAD_CAT_ID": 34429, "ELEMENT_SET_NO": 999, "REV_AT_EPOCH": 89278, "BSTAR": 0.0039844455, "MEAN_MOTION_DOT": 0.00143615, "MEAN_MOTION_DDOT": 0}, "tle": {"line1": "1 34429U 93036RW  25335.66545884  .00143615  00000+0  39844-2 0  9996", "line2": "2 34429  73.9711 191.9931 0005394  40.3675  15.8990 15.36258945892785"}}, "geometry": {"type": "Point", "coordinates": [176.20744641570337, -40.899108635944806]}}, {"type": "Feature", "properties": {"norad_id": 34430, "name": "COSMOS 2251 DEB", "group": "cosmos-2251-debris", "lat": 6.18000438293187, "lon": 140.85220126213343, "alt_km": 793.5422677719516, "timestamp": "2025-12-02T07:10:09.510595+00:00", "meta": {"OBJECT_NAME": "COSMOS 2251 DEB", "OBJECT_ID": "1993-036RX", "EPOCH": "2025-12-01T17:01:39.216288", "MEAN_MOTION": 14.39574848, "ECCENTRICITY": 0.0059823, "INCLINATION": 74.051, "RA_OF_ASC_NODE": 323.7133, "ARG_OF_PERICENTER": 36.2007, "MEAN_ANOMALY": 324.3173, "EPHEMERIS_TYPE": 0, "CLASSIFICATION_TYPE": "U", "NORAD_CAT_ID": 34430, "ELEMENT_SET_NO": 999, "REV_AT_EPOCH": 87796, "BSTAR": 0.00048195, "MEAN_MOTION_DOT": 1.511e-05, "MEAN_MOTION_DDOT": 0}, "tle": {"line1": "1 34430U 93036RX  25335.70948167  .00001511  00000+0  48195-3 0  9992", "line2": "2 34430  74.0510 323.7133 0059823  36.2007 324.3173 14.39574848877963"}}, "geometry": {"type": "Point", "coordinates": [140.85220126213343, 6.18000438293187]}}, {"type": "Feature", "properties": {"norad_id": 34431, "name": "COSMOS 2251 DEB", "group": "cosmos-2251-debris", "lat": 54.717660853934525, "lon": -9.70155881380027, "alt_km": 766.0747594060049, "timestamp": "2025-12-02T07:10:09.510606+00:00", "meta": {"OBJECT_NAME": "COSMOS 2251 DEB", "OBJECT_ID": "1993-036RY", "EPOCH": "2025-12-01T15:28:23.287872", "MEAN_MOTION": 14.28721102, "ECCENTRICITY": 0.00688317, "INCLINATION": 74.074, "RA_OF_ASC_NODE": 195.2811, "ARG_OF_PERICENTER": 183.9529, "MEAN_ANOMALY": 176.1086, "EPHEMERIS_TYPE": 0, "CLASSIFICATION_TYPE": "U", "NORAD_CAT_ID": 34431, "ELEMENT_SET_NO": 999, "REV_AT_EPOCH": 86984, "BSTAR": 0.00057357708, "MEAN_MOTION_DOT": 1.455e-05, "MEAN_MOTION_DDOT": 0}, "tle": {"line1": "1 34431U 93036RY  25335.64471398  .00001455  00000+0  57358-3 0  9991", "line2": "2 34431  74.0740 195.2811 0068831 183.9529 176.1086 14.28721102869841"}}, "geometry": {"type": "Point", "coordinates": [-9.70155881380027, 54.717660853934525]}}]}